DMSPF13
1 23533U 95015A   00001.04983852  .00000364  00000-0  21790-3 0  1836
2 23533  98.8567   9.6886 0007491 356.2489   3.8625 14.13197605246199